{
  "type": "FeatureCollection",
  "name": "phoenix_mag_heat_relief_network",
  "crs": {
    "type": "name",
    "properties": {
      "name": "urn:ogc:def:crs:OGC:1.3:CRS84"
    }
  },
  "features": [
    {
      "type": "Feature",
      "properties": {
        "id": "mag-res-01",
        "name": "Burton Barr Central Library Cooling Center",
        "type": "cooling_center",
        "address": "1221 N Central Ave, Phoenix, AZ 85004",
        "capacity": 150,
        "is_active": true,
        "source": "MAG Heat Relief Network 2024"
      },
      "geometry": {
        "type": "Point",
        "coordinates": [-112.0740, 33.4618]
      }
    },
    {
      "type": "Feature",
      "properties": {
        "id": "mag-res-02",
        "name": "St. Vincent de Paul Watkins Hydration Station",
        "type": "hydration_station",
        "address": "420 W Watkins Rd, Phoenix, AZ 85003",
        "capacity": 200,
        "is_active": true,
        "source": "MAG Heat Relief Network 2024"
      },
      "geometry": {
        "type": "Point",
        "coordinates": [-112.0805, 33.4342]
      }
    },
    {
      "type": "Feature",
      "properties": {
        "id": "mag-res-03",
        "name": "Harmon Public Library Cooling Center",
        "type": "cooling_center",
        "address": "1325 S 5th Ave, Phoenix, AZ 85003",
        "capacity": 80,
        "is_active": true,
        "source": "MAG Heat Relief Network 2024"
      },
      "geometry": {
        "type": "Point",
        "coordinates": [-112.0800, 33.4350]
      }
    },
    {
      "type": "Feature",
      "properties": {
        "id": "mag-res-04",
        "name": "Central Arizona Shelter Services (CASS) Heat Respite",
        "type": "respite_center",
        "address": "230 S 12th Ave, Phoenix, AZ 85007",
        "capacity": 300,
        "is_active": true,
        "source": "MAG Heat Relief Network 2024"
      },
      "geometry": {
        "type": "Point",
        "coordinates": [-112.0890, 33.4450]
      }
    },
    {
      "type": "Feature",
      "properties": {
        "id": "mag-res-05",
        "name": "Eastlake Community Center Hydration Outpost",
        "type": "hydration_station",
        "address": "1549 E Jefferson St, Phoenix, AZ 85034",
        "capacity": 100,
        "is_active": true,
        "source": "MAG Heat Relief Network 2024"
      },
      "geometry": {
        "type": "Point",
        "coordinates": [-112.0485, 33.4475]
      }
    },
    {
      "type": "Feature",
      "properties": {
        "id": "mag-res-06",
        "name": "South Mountain Community Center Cooling Facility",
        "type": "cooling_center",
        "address": "212 E Alta Vista Rd, Phoenix, AZ 85042",
        "capacity": 120,
        "is_active": true,
        "source": "MAG Heat Relief Network 2024"
      },
      "geometry": {
        "type": "Point",
        "coordinates": [-112.0715, 33.3985]
      }
    },
    {
      "type": "Feature",
      "properties": {
        "id": "mag-res-07",
        "name": "Travis L. Williams Post Hydration Station",
        "type": "hydration_station",
        "address": "1624 E Broadway Rd, Phoenix, AZ 85040",
        "capacity": 60,
        "is_active": true,
        "source": "MAG Heat Relief Network 2024"
      },
      "geometry": {
        "type": "Point",
        "coordinates": [-112.0460, 33.4075]
      }
    },
    {
      "type": "Feature",
      "properties": {
        "id": "mag-res-08",
        "name": "Cesar Chavez Community Center Cooling Shelter",
        "type": "cooling_center",
        "address": "7858 S 35th Ave, Phoenix, AZ 85041",
        "capacity": 180,
        "is_active": true,
        "source": "MAG Heat Relief Network 2024"
      },
      "geometry": {
        "type": "Point",
        "coordinates": [-112.1340, 33.3740]
      }
    },
    {
      "type": "Feature",
      "properties": {
        "id": "mag-res-09",
        "name": "Garfield Community Hydration Point",
        "type": "hydration_station",
        "address": "1201 E Roosevelt St, Phoenix, AZ 85006",
        "capacity": 50,
        "is_active": true,
        "source": "MAG Heat Relief Network 2024"
      },
      "geometry": {
        "type": "Point",
        "coordinates": [-112.0560, 33.4585]
      }
    },
    {
      "type": "Feature",
      "properties": {
        "id": "mag-res-10",
        "name": "Phoenix City Hall Heat Respite Pavilion",
        "type": "respite_center",
        "address": "200 W Washington St, Phoenix, AZ 85003",
        "capacity": 250,
        "is_active": true,
        "source": "MAG Heat Relief Network 2024"
      },
      "geometry": {
        "type": "Point",
        "coordinates": [-112.0760, 33.4485]
      }
    }
  ]
}
